{
  "type": "FeatureCollection",
  "features": [
    {
      "type": "Feature",
      "properties": {
        "norad_id": 31279,
        "name": "FENGYUN 1C DEB",
        "group": "fengyun-1c-debris",
        "lat": 51.4893485824147,
        "lon": -169.01757234535447,
        "alt_km": 755.5069765551416,
        "timestamp": "2025-12-17T23:38:07.135587+00:00",
        "meta_object_name": "FENGYUN 1C DEB",
        "meta_object_id": "1999-025BNM",
        "meta_epoch": "2025-12-17T06:12:05.995872",
        "meta_mean_motion": 14.26318274,
        "meta_eccentricity": 0.00738849,
        "meta_inclination": 98.5169,
        "meta_ra_of_asc_node": 359.4216,
        "meta_arg_of_pericenter": 164.4742,
        "meta_mean_anomaly": 195.8729,
        "meta_ephemeris_type": 0,
        "meta_classification_type": "U",
        "meta_norad_cat_id": 31279,
        "meta_element_set_no": 999,
        "meta_rev_at_epoch": 97293,
        "meta_bstar": 0.00041447371,
        "meta_mean_motion_dot": 9.82e-06,
        "meta_mean_motion_ddot": 0,
        "tle_line1": "1 31279U 99025BNM 25351.25840273  .00000982  00000+0  41447-3 0  9995",
        "tle_line2": "2 31279  98.5169 359.4216 0073884 164.4742 195.8729 14.26318274972939"
      },
      "geometry": {
        "type": "Point",
        "coordinates": [
          -169.01757234535447,
          51.4893485824147
        ]
      }
    },
    {
      "type": "Feature",
      "properties": {
        "norad_id": 31281,
        "name": "FENGYUN 1C DEB",
        "group": "fengyun-1c-debris",
        "lat": -13.095858035565644,
        "lon": 129.63469152106828,
        "alt_km": 512.4227039758689,
        "timestamp": "2025-12-17T23:38:07.135598+00:00",
        "meta_object_name": "FENGYUN 1C DEB",
        "meta_object_id": "1999-025BNP",
        "meta_epoch": "2025-12-16T20:47:34.756800",
        "meta_mean_motion": 15.17622147,
        "meta_eccentricity": 0.01131892,
        "meta_inclination": 98.3842,
        "meta_ra_of_asc_node": 126.4307,
        "meta_arg_of_pericenter": 77.6278,
        "meta_mean_anomaly": 283.7595,
        "meta_ephemeris_type": 0,
        "meta_classification_type": "U",
        "meta_norad_cat_id": 31281,
        "meta_element_set_no": 999,
        "meta_rev_at_epoch": 99794,
        "meta_bstar": 0.0010368394,
        "meta_mean_motion_dot": 0.00024629,
        "meta_mean_motion_ddot": 0,
        "tle_line1": "1 31281U 99025BNP 25350.86637450  .00024629  00000+0  10368-2 0  9996",
        "tle_line2": "2 31281  98.3842 126.4307 0113189  77.6278 283.7595 15.17622147997947"
      },
      "geometry": {
        "type": "Point",
        "coordinates": [
          129.63469152106828,
          -13.095858035565644
        ]
      }
    },
    {
      "type": "Feature",
      "properties": {
        "norad_id": 31282,
        "name": "FENGYUN 1C DEB",
        "group": "fengyun-1c-debris",
        "lat": 47.11361117779208,
        "lon": -100.37937329049701,
        "alt_km": 808.4057703600156,
        "timestamp": "2025-12-17T23:38:07.135608+00:00",
        "meta_object_name": "FENGYUN 1C DEB",
        "meta_object_id": "1999-025BNQ",
        "meta_epoch": "2025-12-16T12:28:35.285376",
        "meta_mean_motion": 14.43475945,
        "meta_eccentricity": 0.01268301,
        "meta_inclination": 99.2171,
        "meta_ra_of_asc_node": 268.1041,
        "meta_arg_of_pericenter": 275.2982,
        "meta_mean_anomaly": 83.3746,
        "meta_ephemeris_type": 0,
        "meta_classification_type": "U",
        "meta_norad_cat_id": 31282,
        "meta_element_set_no": 999,
        "meta_rev_at_epoch": 97175,
        "meta_bstar": 0.00021731349,
        "meta_mean_motion_dot": 7.52e-06,
        "meta_mean_motion_ddot": 0,
        "tle_line1": "1 31282U 99025BNQ 25350.51985284  .00000752  00000+0  21731-3 0  9998",
        "tle_line2": "2 31282  99.2171 268.1041 0126830 275.2982  83.3746 14.43475945971750"
      },
      "geometry": {
        "type": "Point",
        "coordinates": [
          -100.37937329049701,
          47.11361117779208
        ]
      }
    },
    {
      "type": "Feature",
      "properties": {
        "norad_id": 31284,
        "name": "FENGYUN 1C DEB",
        "group": "fengyun-1c-debris",
        "lat": -11.465891697306631,
        "lon": -95.30548449454001,
        "alt_km": 991.9901469531296,
        "timestamp": "2025-12-17T23:38:07.135618+00:00",
        "meta_object_name": "FENGYUN 1C DEB",
        "meta_object_id": "1999-025BNS",
        "meta_epoch": "2025-12-12T12:10:56.094816",
        "meta_mean_motion": 13.97898481,
        "meta_eccentricity": 0.01429897,
        "meta_inclination": 99.7223,
        "meta_ra_of_asc_node": 80.8899,
        "meta_arg_of_pericenter": 59.3659,
        "meta_mean_anomaly": 302.1512,
        "meta_ephemeris_type": 0,
        "meta_classification_type": "U",
        "meta_norad_cat_id": 31284,
        "meta_element_set_no": 999,
        "meta_rev_at_epoch": 95159,
        "meta_bstar": 0.00078444655,
        "meta_mean_motion_dot": 1.164e-05,
        "meta_mean_motion_ddot": 0,
        "tle_line1": "1 31284U 99025BNS 25346.50759369  .00001164  00000+0  78445-3 0  9999",
        "tle_line2": "2 31284  99.7223  80.8899 0142989  59.3659 302.1512 13.97898481951595"
      },
      "geometry": {
        "type": "Point",
        "coordinates": [
          -95.30548449454001,
          -11.465891697306631
        ]
      }
    },
    {
      "type": "Feature",
      "properties": {
        "norad_id": 31285,
        "name": "FENGYUN 1C DEB",
        "group": "fengyun-1c-debris",
        "lat": -13.231321799458751,
        "lon": -25.722910855213087,
        "alt_km": 952.5712273488116,
        "timestamp": "2025-12-17T23:38:07.135628+00:00",
        "meta_object_name": "FENGYUN 1C DEB",
        "meta_object_id": "1999-025BNT",
        "meta_epoch": "2025-12-16T09:42:34.138656",
        "meta_mean_motion": 14.26043153,
        "meta_eccentricity": 0.01998974,
        "meta_inclination": 98.5192,
        "meta_ra_of_asc_node": 330.7198,
        "meta_arg_of_pericenter": 176.0918,
        "meta_mean_anomaly": 342.4918,
        "meta_ephemeris_type": 0,
        "meta_classification_type": "U",
        "meta_norad_cat_id": 31285,
        "meta_element_set_no": 999,
        "meta_rev_at_epoch": 97351,
        "meta_bstar": 0.0001563241,
        "meta_mean_motion_dot": 4.14e-06,
        "meta_mean_motion_ddot": 0,
        "tle_line1": "1 31285U 99025BNT 25350.40456179  .00000414  00000+0  15632-3 0  9993",
        "tle_line2": "2 31285  98.5192 330.7198 0199897 176.0918 342.4918 14.26043153973516"
      },
      "geometry": {
        "type": "Point",
        "coordinates": [
          -25.722910855213087,
          -13.231321799458751
        ]
      }
    },
    {
      "type": "Feature",
      "properties": {
        "norad_id": 31286,
        "name": "FENGYUN 1C DEB",
        "group": "fengyun-1c-debris",
        "lat": 50.324553964977305,
        "lon": -129.56898011005578,
        "alt_km": 858.6471166364399,
        "timestamp": "2025-12-17T23:38:07.135638+00:00",
        "meta_object_name": "FENGYUN 1C DEB",
        "meta_object_id": "1999-025BNU",
        "meta_epoch": "2025-12-16T10:15:45.270720",
        "meta_mean_motion": 14.22801772,
        "meta_eccentricity": 0.00798767,
        "meta_inclination": 100.8592,
        "meta_ra_of_asc_node": 241.8956,
        "meta_arg_of_pericenter": 269.7947,
        "meta_mean_anomaly": 89.407,
        "meta_ephemeris_type": 0,
        "meta_classification_type": "U",
        "meta_norad_cat_id": 31286,
        "meta_element_set_no": 999,
        "meta_rev_at_epoch": 64072,
        "meta_bstar": 0.0020801755,
        "meta_mean_motion_dot": 4.763e-05,
        "meta_mean_motion_ddot": 0,
        "tle_line1": "1 31286U 99025BNU 25350.42760730  .00004763  00000+0  20802-2 0  9992",
        "tle_line2": "2 31286 100.8592 241.8956 0079876 269.7947  89.4070 14.22801772640724"
      },
      "geometry": {
        "type": "Point",
        "coordinates": [
          -129.56898011005578,
          50.324553964977305
        ]
      }
    },
    {
      "type": "Feature",
      "properties": {
        "norad_id": 31287,
        "name": "FENGYUN 1C DEB",
        "group": "fengyun-1c-debris",
        "lat": -20.356354256009304,
        "lon": -135.19764597050604,
        "alt_km": 820.6105298996463,
        "timestamp": "2025-12-17T23:38:07.135669+00:00",
        "meta_object_name": "FENGYUN 1C DEB",
        "meta_object_id": "1999-025BNV",
        "meta_epoch": "2025-12-17T09:14:55.199040",
        "meta_mean_motion": 14.280549,
        "meta_eccentricity": 0.0027206,
        "meta_inclination": 99.41,
        "meta_ra_of_asc_node": 47.6846,
        "meta_arg_of_pericenter": 50.1324,
        "meta_mean_anomaly": 310.2241,
        "meta_ephemeris_type": 0,
        "meta_classification_type": "U",
        "meta_norad_cat_id": 31287,
        "meta_element_set_no": 999,
        "meta_rev_at_epoch": 96752,
        "meta_bstar": 0.0011667317,
        "meta_mean_motion_dot": 2.86e-05,
        "meta_mean_motion_ddot": 0,
        "tle_line1": "1 31287U 99025BNV 25351.38536110  .00002860  00000+0  11667-2 0  9997",
        "tle_line2": "2 31287  99.4100  47.6846 0027206  50.1324 310.2241 14.28054900967528"
      },
      "geometry": {
        "type": "Point",
        "coordinates": [
          -135.19764597050604,
          -20.356354256009304
        ]
      }
    }
  ]
}